GPS BIIR-2  (PRN 13)    
1 24876U 97035A   26064.49705659  .00000009  00000+0  00000+0 0  9991
2 24876  55.9360 102.6283 0097977  56.2567 304.7488  2.00563987209879
GPS BIIR-5  (PRN 22)    
1 26407U 00040A   26064.82741473  .00000014  00000+0  00000+0 0  9990
2 26407  54.8752 219.2651 0122665 302.5335 230.2027  2.00568964187878
GPS BIIR-8  (PRN 16)    
1 27663U 03005A   26064.41514012  .00000009  00000+0  00000+0 0  9995
2 27663  54.9071 219.0894 0148737  52.7243 318.2187  2.00566237169230
GPS BIIR-11 (PRN 19)    
1 28190U 04009A   26064.35100823 -.00000023  00000+0  00000+0 0  9997
2 28190  54.9151 279.8814 0111001 169.0892 311.4248  2.00558092160860
GPS BIIR-13 (PRN 02)    
1 28474U 04045A   26064.34269096 -.00000094  00000+0  00000+0 0  9997
2 28474  55.1942 329.0814 0170827 312.8671 225.0992  2.00573478156347
GPS BIIRM-1 (PRN 17)    
1 28874U 05038A   26064.65960726 -.00000020  00000+0  00000+0 0  9995
2 28874  54.9620 277.3543 0128771 295.3628  71.8248  2.00572953149769
GPS BIIRM-2 (PRN 31)    
1 29486U 06042A   26064.31005873  .00000009  00000+0  00000+0 0  9993
2 29486  54.6981 155.4642 0106713  52.8923 318.8970  2.00575327142316
GPS BIIRM-3 (PRN 12)    
1 29601U 06052A   26064.21100884  .00000007  00000+0  00000+0 0  9998
2 29601  54.9569 218.1252 0087858  89.3737 271.5836  2.00551710141326
GPS BIIRM-4 (PRN 15)    
1 32260U 07047A   26064.01919554 -.00000008  00000+0  00000+0 0  9990
2 32260  54.0162  84.3580 0163608  85.9640 275.9610  2.00560713134728
GPS BIIRM-5 (PRN 29)    
1 32384U 07062A   26064.33725213 -.00000021  00000+0  00000+0 0  9991
2 32384  55.1141 278.3260 0032949 160.6805 197.0086  2.00553612133428
GPS BIIRM-6 (PRN 07)    
1 32711U 08012A   26064.43600900  .00000009  00000+0  00000+0 0  9992
2 32711  54.4824 154.0710 0207038 246.2040 111.6495  2.00569259131672
GPS BIIRM-8 (PRN 05)    
1 35752U 09043A   26063.92888088 -.00000085  00000+0  00000+0 0  9998
2 35752  56.1486  31.5470 0051713  80.7039 289.0108  2.00560419121276
GPS BIIF-1  (PRN 25)    
1 36585U 10022A   26064.75428881  .00000012  00000+0  00000+0 0  9994
2 36585  54.2886 212.7266 0127339  65.8860 296.5732  2.00557356115527
GPS BIIF-3  (PRN 24)    
1 38833U 12053A   26064.11552350  .00000009  00000+0  00000+0 0  9993
2 38833  53.5659 147.8643 0176939  64.7787 297.0919  2.00565848 97356
GPS BIIF-4  (PRN 27)    
1 39166U 13023A   26063.98037619 -.00000016  00000+0  00000+0 0  9990
2 39166  54.5857 273.2171 0141620  49.9246 311.3385  2.00564217 93791
GPS BIIF-5  (PRN 30)    
1 39533U 14008A   26064.47751616  .00000008  00000+0  00000+0 0  9997
2 39533  53.6378 153.5513 0082337 228.3363 130.9939  2.00553167 87604
GPS BIIF-6  (PRN 06)    
1 39741U 14026A   26064.75554910 -.00000099  00000+0  00000+0 0  9998
2 39741  56.5458 335.5470 0039852 324.6035  35.1692  2.00568644 86461
